[{"OBJECT_NAME":"STARLINK-35007","OBJECT_ID":"2025-184Q","EPOCH":"2026-03-09T17:28:53.162112","MEAN_MOTION":15.05651077,"ECCENTRICITY":9.889e-5,"INCLINATION":97.6019,"RA_OF_ASC_NODE":122.6525,"ARG_OF_PERICENTER":88.6309,"MEAN_ANOMALY":271.5031,"EPHEMERIS_TYPE":0,"CLASSIFICATION_TYPE":"U","NORAD_CAT_ID":65287,"ELEMENT_SET_NO":999,"REV_AT_EPOCH":3124,"BSTAR":0.00017312166,"MEAN_MOTION_DOT":2.438e-5,"MEAN_MOTION_DDOT":0},{"OBJECT_NAME":"COSMOS 2251 DEB","OBJECT_ID":"1993-036AGL","EPOCH":"2026-03-09T14:26:26.254464","MEAN_MOTION":14.99089752,"ECCENTRICITY":0.0026997,"INCLINATION":74.0375,"RA_OF_ASC_NODE":36.8586,"ARG_OF_PERICENTER":98.2741,"MEAN_ANOMALY":23.5602,"EPHEMERIS_TYPE":0,"CLASSIFICATION_TYPE":"U","NORAD_CAT_ID":35023,"ELEMENT_SET_NO":999,"REV_AT_EPOCH":89579,"BSTAR":0.0019164,"MEAN_MOTION_DOT":0.00023496,"MEAN_MOTION_DDOT":0}]
